{"type": "FeatureCollection", "features": [{"type": "Feature", "properties": {"norad_id": 24876, "name": "GPS BIIR-2  (PRN 13)", "group": "gps-ops", "lat": -4.895885229666973, "lon": 102.26731759178745, "alt_km": 20063.689749347574, "timestamp": "2025-12-19T16:54:44.519701+00:00", "meta": {"OBJECT_NAME": "GPS BIIR-2  (PRN 13)", "OBJECT_ID": "1997-035A", "EPOCH": "2025-12-19T05:08:27.852000", "MEAN_MOTION": 2.00563748, "ECCENTRICITY": 0.00967886, "INCLINATION": 55.8984, "RA_OF_ASC_NODE": 105.6157, "ARG_OF_PERICENTER": 56.9687, "MEAN_ANOMALY": 303.9293, "EPHEMERIS_TYPE": 0, "CLASSIFICATION_TYPE": "U", "NORAD_CAT_ID": 24876, "ELEMENT_SET_NO": 999, "REV_AT_EPOCH": 20834, "BSTAR": 0, "MEAN_MOTION_DOT": -1.6e-07, "MEAN_MOTION_DDOT": 0}, "tle": {"line1": "1 24876U 97035A   25353.21421125 -.00000016  00000+0  00000+0 0  9993", "line2": "2 24876  55.8984 105.6157 0096788  56.9687 303.9293  2.00563748208343"}}, "geometry": {"type": "Point", "coordinates": [102.26731759178745, -4.895885229666973]}}, {"type": "Feature", "properties": {"norad_id": 26360, "name": "GPS BIIR-4  (PRN 20)", "group": "gps-ops", "lat": 54.919247219062804, "lon": 111.09188985700249, "alt_km": 20269.86157148399, "timestamp": "2025-12-19T16:54:44.519735+00:00", "meta": {"OBJECT_NAME": "GPS BIIR-4  (PRN 20)", "OBJECT_ID": "2000-025A", "EPOCH": "2025-12-19T04:51:32.040288", "MEAN_MOTION": 2.00567271, "ECCENTRICITY": 0.00388899, "INCLINATION": 55.049, "RA_OF_ASC_NODE": 26.5765, "ARG_OF_PERICENTER": 242.5944, "MEAN_ANOMALY": 201.8395, "EPHEMERIS_TYPE": 0, "CLASSIFICATION_TYPE": "U", "NORAD_CAT_ID": 26360, "ELEMENT_SET_NO": 999, "REV_AT_EPOCH": 18766, "BSTAR": 0, "MEAN_MOTION_DOT": -7e-07, "MEAN_MOTION_DDOT": 0}, "tle": {"line1": "1 26360U 00025A   25353.20245417 -.00000070  00000+0  00000+0 0  9993", "line2": "2 26360  55.0490  26.5765 0038889 242.5944 201.8395  2.00567271187665"}}, "geometry": {"type": "Point", "coordinates": [111.09188985700249, 54.919247219062804]}}, {"type": "Feature", "properties": {"norad_id": 26407, "name": "GPS BIIR-5  (PRN 22)", "group": "gps-ops", "lat": -51.74695022287303, "lon": 159.1878537337698, "alt_km": 19866.379140354184, "timestamp": "2025-12-19T16:54:44.519752+00:00", "meta": {"OBJECT_NAME": "GPS BIIR-5  (PRN 22)", "OBJECT_ID": "2000-040A", "EPOCH": "2025-12-19T01:29:47.262048", "MEAN_MOTION": 2.00568111, "ECCENTRICITY": 0.01256711, "INCLINATION": 54.8893, "RA_OF_ASC_NODE": 222.3176, "ARG_OF_PERICENTER": 301.916, "MEAN_ANOMALY": 241.001, "EPHEMERIS_TYPE": 0, "CLASSIFICATION_TYPE": "U", "NORAD_CAT_ID": 26407, "ELEMENT_SET_NO": 999, "REV_AT_EPOCH": 18633, "BSTAR": 0, "MEAN_MOTION_DOT": 7.5e-07, "MEAN_MOTION_DDOT": 0}, "tle": {"line1": "1 26407U 00040A   25353.06235257  .00000075  00000+0  00000+0 0  9991", "line2": "2 26407  54.8893 222.3176 0125671 301.9160 241.0010  2.00568111186336"}}, "geometry": {"type": "Point", "coordinates": [159.1878537337698, -51.74695022287303]}}, {"type": "Feature", "properties": {"norad_id": 27663, "name": "GPS BIIR-8  (PRN 16)", "group": "gps-ops", "lat": 46.76463164631177, "lon": -89.552489984028, "alt_km": 19790.328694547665, "timestamp": "2025-12-19T16:54:44.519766+00:00", "meta": {"OBJECT_NAME": "GPS BIIR-8  (PRN 16)", "OBJECT_ID": "2003-005A", "EPOCH": "2025-12-19T06:45:51.439104", "MEAN_MOTION": 2.00570603, "ECCENTRICITY": 0.01476858, "INCLINATION": 54.9218, "RA_OF_ASC_NODE": 222.118, "ARG_OF_PERICENTER": 51.8908, "MEAN_ANOMALY": 65.4619, "EPHEMERIS_TYPE": 0, "CLASSIFICATION_TYPE": "U", "NORAD_CAT_ID": 27663, "ELEMENT_SET_NO": 999, "REV_AT_EPOCH": 16770, "BSTAR": 0, "MEAN_MOTION_DOT": 7.6e-07, "MEAN_MOTION_DDOT": 0}, "tle": {"line1": "1 27663U 03005A   25353.28184536  .00000076  00000+0  00000+0 0  9998", "line2": "2 27663  54.9218 222.1180 0147685  51.8908  65.4619  2.00570603167708"}}, "geometry": {"type": "Point", "coordinates": [-89.552489984028, 46.76463164631177]}}, {"type": "Feature", "properties": {"norad_id": 28190, "name": "GPS BIIR-11 (PRN 19)", "group": "gps-ops", "lat": -33.36543135018967, "lon": 130.3777219828365, "alt_km": 20016.832313992454, "timestamp": "2025-12-19T16:54:44.519779+00:00", "meta": {"OBJECT_NAME": "GPS BIIR-11 (PRN 19)", "OBJECT_ID": "2004-009A", "EPOCH": "2025-12-18T01:19:43.105728", "MEAN_MOTION": 2.00560667, "ECCENTRICITY": 0.01084092, "INCLINATION": 54.9808, "RA_OF_ASC_NODE": 283.0048, "ARG_OF_PERICENTER": 167.7197, "MEAN_ANOMALY": 302.5438, "EPHEMERIS_TYPE": 0, "CLASSIFICATION_TYPE": "U", "NORAD_CAT_ID": 28190, "ELEMENT_SET_NO": 999, "REV_AT_EPOCH": 15931, "BSTAR": 0, "MEAN_MOTION_DOT": -5.1e-07, "MEAN_MOTION_DDOT": 0}, "tle": {"line1": "1 28190U 04009A   25352.05536002 -.00000051  00000+0  00000+0 0  9996", "line2": "2 28190  54.9808 283.0048 0108409 167.7197 302.5438  2.00560667159317"}}, "geometry": {"type": "Point", "coordinates": [130.3777219828365, -33.36543135018967]}}, {"type": "Feature", "properties": {"norad_id": 28474, "name": "GPS BIIR-13 (PRN 02)", "group": "gps-ops", "lat": -53.85756057939344, "lon": -99.8257056806694, "alt_km": 19787.61546412654, "timestamp": "2025-12-19T16:54:44.519792+00:00", "meta": {"OBJECT_NAME": "GPS BIIR-13 (PRN 02)", "OBJECT_ID": "2004-045A", "EPOCH": "2025-12-19T06:56:25.037952", "MEAN_MOTION": 2.00569921, "ECCENTRICITY": 0.01708861, "INCLINATION": 55.2374, "RA_OF_ASC_NODE": 332.1423, "ARG_OF_PERICENTER": 309.5384, "MEAN_ANOMALY": 31.8922, "EPHEMERIS_TYPE": 0, "CLASSIFICATION_TYPE": "U", "NORAD_CAT_ID": 28474, "ELEMENT_SET_NO": 999, "REV_AT_EPOCH": 15481, "BSTAR": 0, "MEAN_MOTION_DOT": -8.2e-07, "MEAN_MOTION_DDOT": 0}, "tle": {"line1": "1 28474U 04045A   25353.28917868 -.00000082  00000+0  00000+0 0  9994", "line2": "2 28474  55.2374 332.1423 0170886 309.5384  31.8922  2.00569921154811"}}, "geometry": {"type": "Point", "coordinates": [-99.8257056806694, -53.85756057939344]}}, {"type": "Feature", "properties": {"norad_id": 28874, "name": "GPS BIIRM-1 (PRN 17)", "group": "gps-ops", "lat": -44.851751814324544, "lon": 144.45859740063995, "alt_km": 19980.115151342714, "timestamp": "2025-12-19T16:54:44.519805+00:00", "meta": {"OBJECT_NAME": "GPS BIIRM-1 (PRN 17)", "OBJECT_ID": "2005-038A", "EPOCH": "2025-12-19T02:51:41.554944", "MEAN_MOTION": 2.00578076, "ECCENTRICITY": 0.01314439, "INCLINATION": 55.0262, "RA_OF_ASC_NODE": 280.4441, "ARG_OF_PERICENTER": 293.6931, "MEAN_ANOMALY": 244.1239, "EPHEMERIS_TYPE": 0, "CLASSIFICATION_TYPE": "U", "NORAD_CAT_ID": 28874, "ELEMENT_SET_NO": 999, "REV_AT_EPOCH": 14822, "BSTAR": 0, "MEAN_MOTION_DOT": -3.7e-07, "MEAN_MOTION_DDOT": 0}, "tle": {"line1": "1 28874U 05038A   25353.11923096 -.00000037  00000+0  00000+0 0  9993", "line2": "2 28874  55.0262 280.4441 0131443 293.6931 244.1239  2.00578076148220"}}, "geometry": {"type": "Point", "coordinates": [144.45859740063995, -44.851751814324544]}}, {"type": "Feature", "properties": {"norad_id": 29486, "name": "GPS BIIRM-2 (PRN 31)", "group": "gps-ops", "lat": 28.35575955429059, "lon": -44.04157298328518, "alt_km": 20187.634068752443, "timestamp": "2025-12-19T16:54:44.519818+00:00", "meta": {"OBJECT_NAME": "GPS BIIRM-2 (PRN 31)", "OBJECT_ID": "2006-042A", "EPOCH": "2025-12-18T13:15:57.668256", "MEAN_MOTION": 2.00553965, "ECCENTRICITY": 0.01073199, "INCLINATION": 54.6948, "RA_OF_ASC_NODE": 158.5101, "ARG_OF_PERICENTER": 52.102, "MEAN_ANOMALY": 339.2959, "EPHEMERIS_TYPE": 0, "CLASSIFICATION_TYPE": "U", "NORAD_CAT_ID": 29486, "ELEMENT_SET_NO": 999, "REV_AT_EPOCH": 14077, "BSTAR": 0, "MEAN_MOTION_DOT": 7.3e-07, "MEAN_MOTION_DDOT": 0}, "tle": {"line1": "1 29486U 06042A   25352.55275079  .00000073  00000+0  00000+0 0  9996", "line2": "2 29486  54.6948 158.5101 0107319  52.1020 339.2959  2.00553965140773"}}, "geometry": {"type": "Point", "coordinates": [-44.04157298328518, 28.35575955429059]}}, {"type": "Feature", "properties": {"norad_id": 29601, "name": "GPS BIIRM-3 (PRN 12)", "group": "gps-ops", "lat": -17.96984289113182, "lon": 54.27938356163685, "alt_km": 20279.40229094237, "timestamp": "2025-12-19T16:54:44.519830+00:00", "meta": {"OBJECT_NAME": "GPS BIIRM-3 (PRN 12)", "OBJECT_ID": "2006-052A", "EPOCH": "2025-12-18T22:17:39.799968", "MEAN_MOTION": 2.00574079, "ECCENTRICITY": 0.0087942, "INCLINATION": 54.9692, "RA_OF_ASC_NODE": 221.1525, "ARG_OF_PERICENTER": 87.5066, "MEAN_ANOMALY": 273.5974, "EPHEMERIS_TYPE": 0, "CLASSIFICATION_TYPE": "U", "NORAD_CAT_ID": 29601, "ELEMENT_SET_NO": 999, "REV_AT_EPOCH": 13979, "BSTAR": 0, "MEAN_MOTION_DOT": 7.7e-07, "MEAN_MOTION_DDOT": 0}, "tle": {"line1": "1 29601U 06052A   25352.92893287  .00000077  00000+0  00000+0 0  9998", "line2": "2 29601  54.9692 221.1525 0087942  87.5066 273.5974  2.00574079139795"}}, "geometry": {"type": "Point", "coordinates": [54.27938356163685, -17.96984289113182]}}, {"type": "Feature", "properties": {"norad_id": 32260, "name": "GPS BIIRM-4 (PRN 15)", "group": "gps-ops", "lat": -16.688890414114187, "lon": 74.88511533163003, "alt_km": 20298.285112415757, "timestamp": "2025-12-19T16:54:44.519843+00:00", "meta": {"OBJECT_NAME": "GPS BIIRM-4 (PRN 15)", "OBJECT_ID": "2007-047A", "EPOCH": "2025-12-18T05:42:28.689120", "MEAN_MOTION": 2.0056436, "ECCENTRICITY": 0.01640962, "INCLINATION": 53.959, "RA_OF_ASC_NODE": 87.5314, "ARG_OF_PERICENTER": 85.3192, "MEAN_ANOMALY": 276.5459, "EPHEMERIS_TYPE": 0, "CLASSIFICATION_TYPE": "U", "NORAD_CAT_ID": 32260, "ELEMENT_SET_NO": 999, "REV_AT_EPOCH": 13318, "BSTAR": 0, "MEAN_MOTION_DOT": -4.8e-07, "MEAN_MOTION_DDOT": 0}, "tle": {"line1": "1 32260U 07047A   25352.23783205 -.00000048  00000+0  00000+0 0  9999", "line2": "2 32260  53.9590  87.5314 0164096  85.3192 276.5459  2.00564360133188"}}, "geometry": {"type": "Point", "coordinates": [74.88511533163003, -16.688890414114187]}}]}